"","Rank","Name","Tuition.and.fees.x","City","State","Zip","URL","Latitude","Longitude","ADMrate","Ownership","Citytype","SAT","AvgCost","Major_agriculture","Major_NatureResource","Major_Architecture","Major_CS","Major_Edu","Major_Engineering","Major_Bio","Major_MathStat","Major_Psychology","Major_SocialScience","Major_Business","Major_History","Tuition.and.fees.y","Earn"
"1",1,"Princeton University","$45,320 ","Princeton","NJ","08544-0070","www.princeton.edu","40.348732","-74.659365","0.0652",2,"21","1493",61860,"0","0","1","0","0","1","1","1","1","1","0","1","$45,320 ","93200"
"2",2,"Harvard University","$47,074 ","Cambridge","MA","02138","www.harvard.edu","42.374471","-71.118313","0.054",2,"12","1506",64400,"0","1","0","1","0","2","2","1","1","2","0","2","$47,074 ","112800"
"3",3,"University of Chicago","$52,491 ","Chicago","IL","60637","WWW.UCHICAGO.EDU","41.787994","-87.599539","0.0794",2,"11","1508",70100,"0","1","0","1","0","0","1","1","1","1","0","1","$52,491 ","81700"
"4",4,"Yale University","$49,480 ","New Haven","CT","06520","www.yale.edu","41.311158","-72.926688","0.0632",2,"12","1502",66445,"0","1","1","1","0","1","1","1","1","1","0","1","$49,480 ","100500"
"5",5,"Stanford University","$47,940 ","Stanford","CA","94305","www.stanford.edu/","37.429434","-122.167359","0.0481",2,"21","1476",64477,"0","0","0","1","0","1","1","1","1","1","0","1","$47,940 ","122100"
"6",6,"Columbia University in the City of New York","$55,056 ","New York","NY","10027","www.columbia.edu","40.808286","-73.961885","0.0683",2,"11","1496",69021,"0","1","1","1","1","1","1","1","1","1","1","1","$55,056 ","92100"
"7",7,"Massachusetts Institute of Technology","$48,452 ","Cambridge","MA","02139-4307","web.mit.edu/","42.360095","-71.092115","0.0794",2,"12","1519",63250,"0","0","1","1","0","1","1","1","0","1","1","1","$48,452 ","126500"
"8",8,"Duke University","$51,265 ","Durham","NC","27708","WWW.DUKE.EDU","36.001135","-78.937624","0.1083",2,"11","1460",67005,"0","1","0","1","1","1","1","1","1","1","0","1","$51,265 ","98300"
"9",9,"University of Pennsylvania","$51,464 ","Philadelphia","PA","19104-6303","www.upenn.edu","39.950929","-75.19391","0.0944",2,"11","1481",66800,"0","1","1","1","0","1","1","1","1","1","1","1","$51,464 ","106900"
"10",10,"Johns Hopkins University","$50,410 ","Baltimore","MD","21218-2688","www.jhu.edu","39.328977","-76.621595","0.1284",2,"11","1476",65473,"0","1","0","2","1","2","1","1","1","1","2","1","$50,410 ","73700"
"11",11,"Dartmouth College","$51,438 ","Hanover","NH","03755-3529","www.dartmouth.edu","43.704115","-72.289949","0.1059",2,"33","1441",67044,"0","1","0","1","0","1","1","1","1","1","0","1","$51,438 ","85300"
"12",12,"California Institute of Technology","$47,577 ","Pasadena","CA","91125","www.caltech.edu","34.137349","-118.125878","0.0807",2,"12","1555",63471,"0","0","0","1","0","1","1","1","0","1","1","1","$47,577 ","80500"
"13",13,"Northwestern University","$50,855 ","Evanston","IL","60208","www.northwestern.edu","42.050356","-87.679858","0.1066",2,"13","1470",67887,"0","1","1","1","1","1","1","1","1","1","1","1","$50,855 ","73500"
"14",14,"Brown University","$51,367 ","Providence","RI","02912","www.brown.edu","41.82617","-71.40385","0.0931",2,"12","1459",65380,"0","1","0","1","1","1","1","1","1","1","1","1","$51,367 ","68500"
"15",15,"Cornell University","$50,953 ","Ithaca","NY","14853","www.cornell.edu","42.4472","-76.483084","0.1409",2,"13","1436",65464,"1","1","1","1","1","1","1","1","1","1","1","1","$50,953 ","81200"
"16",16,"Rice University","$43,918 ","Houston","TX","77005-1827","www.rice.edu","29.717897","-95.402035","0.1527",2,"11","1490",58253,"0","1","1","1","0","1","1","1","1","1","1","1","$43,918 ","76800"
"17",17,"University of Notre Dame","$49,685 ","Notre Dame","IN","46556","www.nd.edu","41.703058","-86.238959","0.1873",2,"21","1474",64775,"0","1","1","1","1","1","1","1","1","1","1","1","$49,685 ","78700"
"18",18,"Vanderbilt University","$45,610 ","Nashville","TN","37240","www.vanderbilt.edu","36.14659","-86.803369","0.1075",2,"11","1495",63532,"0","0","0","1","1","1","1","1","1","1","0","1","$45,610 ","69700"
"19",19,"Washington University in St Louis","$49,770 ","Saint Louis","MO","63130-4899","www.wustl.edu","38.647929","-90.310604","0.1653",2,"21","1472",67751,"0","1","1","1","1","1","1","1","1","1","1","1","$49,770 ","68900"
"20",20,"Emory University","$47,954 ","Atlanta","GA","30322","www.emory.edu","33.790183","-84.325512","0.2529",2,"21","1397",63058,"0","1","0","1","1","1","1","1","1","1","1","1","$47,954 ","71800"
"21",21,"Georgetown University","$50,547 ","Washington","DC","20057-0001","www.georgetown.edu","38.908809","-77.073463","0.1685",2,"11","1422",66971,"0","0","0","1","0","0","1","1","1","1","1","1","$50,547 ","99400"
"22",22,"University of California-Berkeley","$40,191 ","Berkeley","CA","94720","www.berkeley.edu","37.871918","-122.260463","0.1693",1,"12","1422",34924,"0","1","1","1","0","1","1","1","1","1","1","1","$40,191 ","62500"
"23",23,"University of Southern California","$52,217 ","Los Angeles","CA","90089","www.usc.edu/","34.021281","-118.284169","0.1662",2,"11","1395",67064,"0","1","1","1","1","1","1","1","1","1","1","1","$52,217 ","74300"
"24",24,"Carnegie Mellon University","$52,040 ","Pittsburgh","PA","15213-3890","www.cmu.edu/","40.44357","-79.941993","0.2171",2,"11","1458",65877,"0","1","1","1","1","1","1","1","1","1","1","1","$52,040 ","87400"
"25",25,"University of California-Los Angeles","$39,518 ","Los Angeles","CA","90095-1405","www.ucla.edu/","34.068892","-118.443901","0.1799",1,"11","1334",33078,"0","1","1","1","0","1","1","1","1","1","1","1","$39,518 ","58800"
"26",26,"The University of Virginia's College at Wise","$45,066 ","Wise","VA","24293-4400","https://www.uvawise.edu/","36.971468","-82.558728","0.7771",1,"32","963",21138,"0","0","0","1","0","1","0","1","0","1","1","1","$45,066 ","37400"
"27",27,"Tufts University","$52,430 ","Medford","MA","02155-5555","www.tufts.edu","42.408465","-71.120316","0.1429",2,"21","1445",65814,"0","1","1","1","0","1","1","1","1","1","0","1","$52,430 ","82900"
"28",28,"Wake Forest University","$49,308 ","Winston-Salem","NC","27106","www.wfu.edu","36.133609","-80.277446","0.3034",2,"12","NULL",64442,"0","0","0","1","1","1","1","1","1","1","1","1","$49,308 ","62900"
"29",29,"University of Michigan-Ann Arbor","$43,476 ","Ann Arbor","MI","48109","www.umich.edu","42.275921","-83.742769","0.2859",1,"12","1386",27725,"0","1","1","1","1","1","1","1","1","1","1","1","$43,476 ","65800"
"30",30,"University of North Carolina at Chapel Hill","$33,916 ","Chapel Hill","NC","27599","www.unc.edu","35.911769","-79.050969","0.2694",1,"13","1338",24327,"0","1","0","1","1","1","1","1","1","1","1","1","$33,916 ","58200"
"31",31,"Boston College","$51,296 ","Chestnut Hill","MA","02467","www.bc.edu","42.336213","-71.169242","0.3114",2,"13","1378",65595,"0","1","0","1","1","0","1","1","1","1","1","1","$51,296 ","77600"
"32",32,"University of Rochester","$50,142 ","Rochester","NY","14627-0011","www.rochester.edu","43.126397","-77.631202","0.3553",2,"12","NULL",65364,"0","1","0","1","1","1","1","1","1","1","1","1","$50,142 ","61200"
"33",33,"College of William and Mary","$41,718 ","Williamsburg","VA","23187-8795","www.wm.edu","37.269489","-76.708214","0.3652",1,"23","1360",33630,"0","0","0","1","0","0","1","1","1","1","1","1","$41,718 ","59300"
"34",34,"Brandeis University","$51,570 ","Waltham","MA","02454-9110","www.brandeis.edu/","42.364947","-71.254716","0.3344",2,"13","1377",65954,"0","1","0","1","1","0","1","1","1","1","1","1","$51,570 ","53300"
"35",35,"California Institute of Technology","$32,404 ","Pasadena","CA","91125","www.caltech.edu","34.137349","-118.125878","0.0807",2,"12","1555",63471,"0","0","0","1","0","1","1","1","0","1","1","1","$32,404 ","80500"
"36",36,"New York University","$49,062 ","New York","NY","10012-1091","www.nyu.edu","40.729452","-73.997264","0.3187",2,"11","1371",67637,"0","0","0","1","1","2","1","1","1","2","2","1","$49,062 ","62800"
"37",37,"Case Western Reserve University","$46,006 ","Cleveland","OH","44106","www.case.edu","41.507419","-81.609596","0.3544",2,"11","1408",61371,"0","1","1","1","1","1","1","1","1","1","1","1","$46,006 ","74200"
"38",38,"University of California-Santa Barbara","$40,704 ","Santa Barbara","CA","93106","www.ucsb.edu","34.416297","-119.846426","0.3577",1,"22","1281",34998,"0","1","0","1","0","1","1","1","1","1","1","1","$40,704 ","49600"
"39",39,"Boston University","$50,240 ","Boston","MA","02215","www.bu.edu","42.351118","-71.107942","0.2943",2,"11","1328",65809,"0","0","1","1","1","1","1","1","1","1","1","1","$50,240 ","59800"
"40",40,"Northeastern University","$47,655 ","Boston","MA","02115-5005","www.northeastern.edu","42.339992","-71.088782","0.2888",2,"11","1434",62789,"0","1","1","1","0","1","1","1","1","1","1","1","$47,655 ","61900"
"41",41,"Rensselaer Polytechnic Institute","$50,797 ","Troy","NY","12180-3590","www.rpi.edu","42.729978","-73.676646","0.4435",2,"13","1365",66172,"0","1","1","1","0","1","1","1","1","1","1","0","$50,797 ","71400"
"42",42,"Tulane University of Louisiana","$51,010 ","New Orleans","LA","70118-5698","tulane.edu","29.940069","-90.122144","0.255",2,"11","1346",64926,"0","1","1","1","1","1","1","1","1","1","1","1","$51,010 ","67600"
"43",43,"University of California-Irvine","$39,458 ","Irvine","CA","92697","www.uci.edu/","33.648434","-117.841248","0.4065",1,"11","1206",31198,"0","1","1","1","1","1","1","1","1","1","1","1","$39,458 ","51500"
"44",44,"Lehigh University","$48,320 ","Bethlehem","PA","18015","www.lehigh.edu","40.606822","-75.380236","0.2611",2,"13","1340",60391,"0","1","1","1","0","1","1","1","1","1","1","1","$48,320 ","75600"
"45",45,"University of Miami","$47,004 ","Coral Gables","FL","33146","www.miami.edu/","25.72126","-80.278662","0.3771",2,"21","1323",59833,"0","1","1","1","1","1","1","1","1","1","1","1","$47,004 ","60400"
"46",46,"University of California-Hastings College of Law","$40,728 ","San Francisco","CA","94102-4978","www.uchastings.edu","37.781137","-122.4157","NULL",1,"11","NULL",NA,"0","0","0","0","0","0","0","0","0","0","0","0","$40,728 ","118500"
"47",47,"University of California-San Diego","$41,387 ","La Jolla","CA","92093","www.ucsd.edu","32.876598","-117.237793","0.3566",1,"11","1324",31043,"0","1","0","1","1","1","1","1","1","1","1","1","$41,387 ","55200"
"48",48,"University of Illinois at Urbana-Champaign","$31,320 ","Champaign","IL","61820-5711","www.illinois.edu/","40.104718","-88.229114","0.6007",1,"13","1320",29764,"1","1","1","1","1","1","1","1","1","1","1","1","$31,320 ","58100"
"49",49,"University of Wisconsin-Madison","$32,738 ","Madison","WI","53706-1380","www.wisc.edu","43.075409","-89.404098","0.5262",1,"11","1302",24594,"1","1","1","1","1","1","1","1","1","1","1","1","$32,738 ","57600"
"50",50,"Pepperdine University","$50,022 ","Malibu","CA","90263","www.pepperdine.edu/","34.037786","-118.707077","0.3687",2,"21","1251",66152,"0","0","0","1","1","0","1","1","1","1","2","1","$50,022 ","67300"
"51",51,"University of Florida","$28,666 ","Gainesville","FL","32611","www.ufl.edu/","29.64629","-82.347911","0.4594",1,"12","1287",20571,"1","1","1","2","1","1","2","1","2","2","1","1","$28,666 ","54300"
"52",52,"Villanova University","$49,280 ","Villanova","PA","19085-1699","www.villanova.edu","40.039388","-75.345457","0.435",2,"21","1350",62583,"0","1","0","1","1","1","1","1","1","1","2","1","$49,280 ","70700"
"53",53,"University of Washington-Seattle Campus","$34,791 ","Seattle","WA","98195-4550","www.washington.edu","47.65538","-122.30514","0.4535",1,"11","1266",25520,"1","1","1","1","2","1","1","1","1","2","1","1","$34,791 ","57200"
"54",54,"George Washington University","$51,950 ","Washington","DC","20052","www.gwu.edu","38.89923","-77.048363","0.4021",2,"11","1301",65218,"0","1","0","2","0","1","1","1","1","1","1","1","$51,950 ","70000"
"55",55,"Southern Methodist University","$50,358 ","Dallas","TX","75275-0221","www.smu.edu","32.845254","-96.784855","0.4892",2,"21","1330",66889,"0","1","0","1","1","1","1","1","1","1","1","1","$50,358 ","62600"
"56",56,"University of Georgia","$29,844 ","Athens","GA","30602","www.uga.edu","33.956262","-83.374039","0.539",1,"12","1262",24991,"1","1","1","1","2","1","1","1","1","1","2","1","$29,844 ","48500"
"57",57,"Fordham University","$47,317 ","Bronx","NY","10458","www.fordham.edu","40.859354","-73.882705","0.4522",2,"11","1281",63109,"0","1","0","1","1","1","1","1","1","1","1","1","$47,317 ","53400"
"58",58,"Syracuse University","$45,022 ","Syracuse","NY","13244","https://www.syracuse.edu","43.040176","-76.136975","0.5232",2,"12","1204",61070,"0","0","1","1","1","1","1","1","1","1","1","1","$45,022 ","55000"
"59",59,"University of Connecticut","$35,858 ","Storrs","CT","06269","uconn.edu/","41.809098","-72.249948","0.488",1,"21","1248",29128,"1","1","1","1","1","1","1","1","1","1","1","1","$35,858 ","55200"
"60",60,"Worcester Polytechnic Institute","$46,994 ","Worcester","MA","01609-2280","https://www.wpi.edu/","42.274853","-71.808339","0.4844",2,"12","NULL",60878,"0","0","0","1","0","1","1","1","1","1","1","0","$46,994 ","72900"
"61",61,"University of Maryland-College Park","$32,045 ","College Park","MD","20742","www.umd.edu","38.988178","-76.944721","0.4806",1,"21","1337",24041,"1","1","1","1","1","1","1","1","1","1","1","1","$32,045 ","57500"
"62",62,"Clemson University","$32,796 ","Clemson","SC","29634","www.clemson.edu","34.679381","-82.835114","0.5054",1,"21","1269",27722,"1","1","1","1","1","2","1","1","1","1","1","1","$32,796 ","48700"
"63",63,"Yeshiva University","$40,670 ","New York","NY","10033-3299","www.yu.edu","40.850605","-73.929873","0.5075",2,"11","1217",57355,"0","0","0","1","1","1","1","1","1","1","1","1","$40,670 ","65500"
"64",64,"Brigham Young University-Provo","$5,300 ","Provo","UT","84602","www.byu.edu","40.250851","-111.649281","0.5118",2,"12","1293",17395,"1","0","0","1","1","1","1","1","1","1","1","1","$5,300 ","54900"
"65",65,"University of Pittsburgh-Bradford","$29,758 ","Bradford","PA","16701","www.upb.pitt.edu/","41.943415","-78.673701","0.526",1,"33","982",25788,"0","0","0","1","1","1","1","1","1","1","1","0","$29,758 ","51500"
"66",66,"Rutgers University-New Brunswick","$30,023 ","New Brunswick","NJ","08901-1281","newbrunswick.rutgers.edu/","40.498769","-74.446251","0.5694",1,"13","1230",29388,"1","1","1","2","0","1","1","1","2","2","2","1","$30,023 ","54700"
"67",67,"Baylor University","$42,006 ","Waco","TX","76798","www.baylor.edu","31.54896","-97.117641","0.3972",2,"12","1246",56701,"0","1","0","1","1","1","1","1","1","1","1","1","$42,006 ","48000"
"68",68,"Stevens Institute of Technology","$48,838 ","Hoboken","NJ","07030-5991","www.stevens.edu","40.744776","-74.025334","0.3911",2,"21","1360",62100,"0","0","0","1","0","1","1","1","0","1","1","0","$48,838 ","73900"
"69",69,"University of Minnesota-Twin Cities","$22,210 ","Minneapolis","MN","55455-0213","https://twin-cities.umn.edu","44.972851","-93.235464","0.4441",1,"11","1288",25370,"1","1","1","2","2","2","1","1","1","1","2","1","$22,210 ","49900"
"70",70,"American University","$44,853 ","Washington","DC","20016-8001","WWW.AMERICAN.EDU","38.936005","-77.088875","0.2591",2,"11","1262",60501,"0","1","0","1","1","0","1","1","1","1","1","1","$44,853 ","55200"
"71",71,"Clark University","$43,150 ","Worcester","MA","01610-1477","www.clarku.edu","42.249987","-71.823356","0.5473",2,"12","NULL",51609,"0","1","0","1","0","0","1","1","1","1","1","1","$43,150 ","43400"
"72",72,"Texas A & M University-College Station","$28,768 ","College Station","TX","77843-1248","www.tamu.edu","30.618726","-96.336475","0.6717",1,"12","1205",24682,"1","1","1","1","0","1","1","1","1","1","1","1","$28,768 ","56400"
"73",73,"University of Massachusetts-Amherst","$30,123 ","Amherst","MA","01003","www.umass.edu","42.385999","-72.526728","0.5968",1,"21","1234",28000,"1","1","1","1","1","1","1","1","1","1","2","1","$30,123 ","46600"
"74",74,"Bryant & Stratton College-Virginia Beach","$29,371 ","Virginia Beach","VA","23462","www.bryantstratton.edu","36.827826","-76.13819","NULL",3,"11","NULL",22519,"0","0","0","0","0","0","0","0","0","0","1","0","$29,371 ","23600"
"75",75,"University of Delaware","$31,420 ","Newark","DE","19716","www.udel.edu/","39.679577","-75.752822","0.695",1,"21","1170",24557,"2","1","1","1","1","1","1","1","1","1","1","1","$31,420 ","53100"
"76",76,"Miami University-Oxford","$31,592 ","Oxford","OH","45056","miamioh.edu","39.507757","-84.732954","0.6538",1,"31","1276",29413,"0","1","1","1","1","1","1","1","1","1","1","1","$31,592 ","45400"
"77",77,"University of California-Santa Cruz","$40,241 ","Santa Cruz","CA","95064-1011","www.ucsc.edu/","36.995584","-122.058801","0.5785",1,"13","1201",34608,"1","1","0","1","1","1","1","1","1","1","1","1","$40,241 ","42400"
"78",78,"Colorado School of Mines","$34,828 ","Golden","CO","80401","www.mines.edu","39.751443","-105.223364","0.4035",1,"21","1354",31226,"0","0","0","1","0","1","0","1","0","1","0","0","$34,828 ","80900"
"79",79,"Michigan State University","$39,090 ","East Lansing","MI","48824-1046","https://www.msu.edu","42.73212","-84.476111","0.6574",1,"13","1194",25809,"1","1","1","1","1","1","1","1","1","1","1","1","$39,090 ","51700"
"80",80,"Texas Christian University","$42,670 ","Fort Worth","TX","76129","www.tcu.edu/","32.709568","-97.361537","0.3758",2,"11","1223",58040,"1","1","0","1","1","1","1","1","1","1","1","1","$42,670 ","51700"
"81",81,"University of Iowa","$28,413 ","Iowa City","IA","52242-1316","www.uiowa.edu","41.661935","-91.536425","0.8411",1,"13","1165",21010,"0","1","0","1","1","1","1","1","1","1","2","1","$28,413 ","51500"
"82",82,"Marquette University","$38,470 ","Milwaukee","WI","53233","www.marquette.edu","43.03903","-87.927961","0.8434",2,"11","1199",51316,"0","1","0","1","1","1","1","1","1","1","1","1","$38,470 ","59500"
"83",83,"University of Denver","$46,362 ","Denver","CO","80208","www.du.edu","39.678005","-104.963259","0.5347",2,"11","1262",59656,"0","2","0","1","0","1","1","1","1","2","2","1","$46,362 ","53000"
"84",84,"University of San Diego","$46,140 ","San Diego","CA","92110-2492","www.sandiego.edu","32.77142","-117.188721","0.5138",2,"11","1237",61004,"0","1","1","1","0","1","1","1","1","1","1","1","$46,140 ","60400"
"85",85,"University of Tulsa","$38,796 ","Tulsa","OK","74104-3189","https://utulsa.edu","36.152324","-95.945941","0.3696",2,"11","1308",53667,"0","1","0","1","1","1","1","1","1","1","1","1","$38,796 ","50000"
"86",86,"Indiana University-Bloomington","$34,246 ","Bloomington","IN","47405-7000","www.iub.edu","39.16609","-86.526559","0.7872",1,"13","1200",24432,"0","1","0","1","1","0","1","1","1","1","2","1","$34,246 ","48300"
"87",87,"Florida State University","$24,673 ","Tallahassee","FL","32306-1037","www.fsu.edu","30.440756","-84.291921","0.5801",1,"12","1214",21938,"0","1","0","1","1","1","1","1","1","1","1","1","$24,673 ","44700"
"88",88,"University of Vermont","$40,364 ","Burlington","VT","05405-0160","www.uvm.edu","44.477325","-73.196646","0.6894",1,"13","1216",30573,"1","2","0","1","1","1","1","1","1","1","1","1","$40,364 ","44500"
"89",89,"North Carolina State University at Raleigh","$26,399 ","Raleigh","NC","27695-7001","www.ncsu.edu","35.785111","-78.674517","0.4751",1,"11","1273",22226,"1","1","1","1","1","1","1","1","1","1","1","1","$26,399 ","49200"
"90",90,"University of Colorado Boulder","$35,079 ","Boulder","CO","80309-0017","www.colorado.edu","40.008781","-105.270823","0.7662",1,"12","1229",31393,"0","1","1","1","1","1","1","1","1","1","1","1","$35,079 ","47000"
"91",91,"Drexel University","$51,030 ","Philadelphia","PA","19104","www.drexel.edu","39.955217","-75.190051","0.7465",2,"11","1204",67821,"0","1","1","1","1","1","1","1","1","1","1","1","$51,030 ","62900"
"92",92,"Saint Louis University","$40,726 ","Saint Louis","MO","63103-2097","www.slu.edu","38.636801","-90.2351","0.6474",2,"11","1259",54698,"0","1","0","1","1","1","1","1","1","1","2","1","$40,726 ","53700"
"93",93,"Auburn University","$28,840 ","Auburn","AL","36849","www.auburn.edu","32.599378","-85.488258","0.8054",1,"13","1217",29794,"1","1","1","1","1","1","1","1","1","1","1","1","$28,840 ","46800"
"94",94,"Loyola University Chicago","$41,384 ","Chicago","IL","60660","www.luc.edu","42.000765","-87.656872","0.7257",2,"11","1195",54324,"0","1","0","2","1","1","1","1","2","1","2","1","$41,384 ","51800"
"95",95,"SUNY College of Environmental Science and Forestry","$17,620 ","Syracuse","NY","13210","www.esf.edu","43.034765","-76.138724","0.5421",1,"12","1157",24430,"0","1","1","0","0","1","1","0","0","0","1","0","$17,620 ","42100"
"96",96,"Illinois Institute of Technology","$45,214 ","Chicago","IL","60616","web.iit.edu/","41.8313","-87.627321","0.571",2,"11","1275",57277,"0","0","1","1","0","1","1","1","1","1","1","0","$45,214 ","66500"
"97",97,"University of Oregon","$33,442 ","Eugene","OR","97403","www.uoregon.edu","44.045146","-123.075792","0.7787",1,"12","1111",24209,"0","1","1","1","1","0","1","1","1","1","1","1","$33,442 ","42300"
"98",98,"University of Alabama at Birmingham","$26,950 ","Birmingham","AL","35294-0110","www.uab.edu","33.505697","-86.799345","0.5814",1,"12","1125",22684,"0","0","0","1","1","1","1","1","1","1","2","1","$26,950 ","42000"
"99",99,"The University of Tennessee-Chattanooga","$30,858 ","Chattanooga","TN","37403-2598","www.utc.edu","35.048247","-85.299812","0.7826",1,"12","1088",21495,"0","1","0","1","1","1","1","1","1","1","1","1","$30,858 ","35900"
"100",100,"Rochester Institute of Technology","$38,568 ","Rochester","NY","14623-5603","www.rit.edu/","43.084188","-77.67386","0.5493",2,"21","1254",50713,"0","1","0","1","0","1","1","1","1","1","1","0","$38,568 ","56100"
"101",101,"University of San Francisco","$44,494 ","San Francisco","CA","94117-1080","https://www.usfca.edu","37.775564","-122.450977","0.7137",2,"11","1150",61072,"0","1","1","1","0","0","1","1","1","1","1","1","$44,494 ","62200"
"102",102,"University of New Hampshire-School of Law","$31,424 ","Concord","NH","03301-4197","https://law.unh.edu","43.207371","-71.545152","NULL",1,"31","NULL",NA,"0","0","0","0","0","0","0","0","0","0","0","0","$31,424 ","97700"
"103",103,"University of North Carolina at Asheville","$31,282 ","Asheville","NC","28804-8510","https://www.unca.edu","35.617068","-82.565392","0.7593",1,"13","1155",18424,"0","1","0","1","0","1","1","1","1","1","1","1","$31,282 ","32200"
"104",104,"Iowa State University","$21,483 ","Ames","IA","50011-2103","www.iastate.edu","42.026212","-93.648504","0.8749",1,"13","1144",19182,"1","1","1","1","1","1","1","1","1","1","1","1","$21,483 ","47600"
"105",105,"University of Dayton","$40,940 ","Dayton","OH","45469","https://www.udayton.edu","39.739547","-84.176113","0.6035",2,"12","1185",53530,"0","1","0","1","1","1","1","1","1","1","1","1","$40,940 ","50200"
"106",106,"University of the Pacific","$44,588 ","Stockton","CA","95211-0197","www.pacific.edu","37.981424","-121.312301","0.6599",2,"11","1180",56899,"0","1","0","1","1","1","1","1","1","1","1","1","$44,588 ","74300"
"107",107,"University of Utah","$27,039 ","Salt Lake City","UT","84112-9008","www.utah.edu","40.762484","-111.846044","0.7642",1,"12","1116",18444,"0","1","1","1","1","1","1","1","1","1","1","1","$27,039 ","51800"
"108",108,"University of Mississippi","$25,892 ","University","MS","38677-1848","www.olemiss.edu","34.365529","-89.537434","0.783",1,"33","1155",23372,"0","0","0","1","2","1","1","1","1","1","1","1","$25,892 ","48000"
"109",109,"University of Nebraska-Lincoln","$23,148 ","Lincoln","NE","68588","www.unl.edu/","40.817598","-96.700508","0.7527",1,"11","1144",22535,"2","1","1","1","1","1","1","1","1","1","1","1","$23,148 ","44300"
"110",110,"University of Oklahoma-Health Sciences Center","$21,451 ","Oklahoma City","OK","73117-1221","ouhsc.edu","35.47928","-97.496289","NULL",1,"11","NULL",NA,"0","0","0","0","0","0","0","0","0","0","0","0","$21,451 ","52000"
"111",111,"Michigan Technological University","$30,968 ","Houghton","MI","49931-1295","www.mtu.edu","47.11866","-88.548092","0.7644",1,"33","1242",26587,"0","1","0","1","0","1","1","1","1","1","1","1","$30,968 ","56800"
"112",112,"Seton Hall University","$39,258 ","South Orange","NJ","07079-2697","www.shu.edu/","40.742336","-74.246027","0.669",2,"21","1156",51395,"0","1","0","1","1","0","1","1","1","1","2","1","$39,258 ","53400"
"113",113,"Temple University","$25,994 ","Philadelphia","PA","19122-6096","www.temple.edu","39.980546","-75.156859","0.5219",1,"11","NULL",30166,"1","1","1","1","1","1","1","1","1","1","2","1","$25,994 ","49700"
"114",114,"University of Kansas","$25,932 ","Lawrence","KS","66045","www.ku.edu","38.958549","-95.247567","0.9301",1,"13","1185",23687,"0","1","1","1","1","1","1","1","2","1","1","1","$25,932 ","48900"
"115",115,"University of California-Riverside","$40,263 ","Riverside","CA","92521","WWW.UCR.EDU","33.97246","-117.32741","0.6634",1,"11","1078",31494,"0","1","0","1","0","1","1","1","1","1","1","1","$40,263 ","43500"
"116",116,"University of St Thomas","$39,594 ","Houston","TX","77006-4696","www.stthom.edu","29.736438","-95.393102","0.7739",2,"11","1085",41141,"0","1","0","1","0","0","1","1","1","1","1","1","$39,594 ","50800"
"117",116,"University of St Thomas","$39,594 ","Houston","TX","77006-4696","www.stthom.edu","29.736438","-95.393102","0.7739",2,"11","1085",41141,"0","1","0","1","0","0","1","1","1","1","1","1","$39,594 ","49600"
"118",116,"University of St Thomas","$39,594 ","Saint Paul","MN","55105-1078","www.stthomas.edu","44.943439","-93.188986","0.8266",2,"11","1204",50515,"0","1","0","1","1","1","1","1","1","1","1","1","$39,594 ","50800"
"119",116,"University of St Thomas","$39,594 ","Saint Paul","MN","55105-1078","www.stthomas.edu","44.943439","-93.188986","0.8266",2,"11","1204",50515,"0","1","0","1","1","1","1","1","1","1","1","1","$39,594 ","49600"
"120",117,"DePaul University","$37,626 ","Chicago","IL","60604","https://www.depaul.edu","41.877618","-87.62724","0.6975",2,"11","NULL",50997,"0","1","1","2","1","0","1","1","1","1","1","1","$37,626 ","49700"
"121",118,"Duquesne University","$35,062 ","Pittsburgh","PA","15282","www.duq.edu","40.43589","-79.993123","0.7394",2,"11","1165",48219,"0","1","0","2","1","0","1","1","1","1","2","1","$35,062 ","60300"
"122",119,"Howard University","$24,908 ","Washington","DC","20059-0001","www.howard.edu","38.922392","-77.018966","0.3",2,"11","1142",43116,"0","0","1","1","1","1","1","1","1","1","1","1","$24,908 ","46000"
"123",120,"University of Arizona","$30,025 ","Tucson","AZ","85721-0066","www.arizona.edu","32.232672","-110.950815","0.7862",1,"11","NULL",24633,"1","1","2","2","2","1","1","1","2","1","2","2","$30,025 ","46200"
"124",121,"Catholic University of America","$42,536 ","Washington","DC","20064","https://www.catholic.edu","38.933651","-76.997909","0.7955",2,"11","NULL",57561,"0","0","1","1","1","1","1","1","1","1","1","1","$42,536 ","51100"
"125",122,"Clarkson University","$46,132 ","Potsdam","NY","13699","www.clarkson.edu","44.662716","-74.999359","0.6821",2,"33","1190",61992,"0","1","0","1","0","1","1","1","1","1","1","1","$46,132 ","61900"
"126",123,"Arizona State University-Tempe","$25,458 ","Tempe","AZ","85287","www.asu.edu/","33.417721","-111.934383","0.825",1,"12","1147",23931,"0","1","1","1","1","1","1","1","1","1","1","1","$25,458 ","46600"
"127",124,"Colorado State University-Fort Collins","$28,374 ","Fort Collins","CO","80523-0100","www.colostate.edu","40.574805","-105.080732","0.7796",1,"12","1159",24885,"2","1","1","1","1","1","1","1","2","2","1","1","$28,374 ","43600"
"128",125,"Imagine-Paul Mitchell Partner School","$45,535 ","North Little Rock","AR","72117","paulmitchell.edu/littlerock","34.789913","-92.222202","NULL",3,"13","NULL",NA,"0","0","0","0","0","0","0","0","0","0","0","0","$45,535 ","PrivacySuppressed"
"129",126,"Hofstra University","$42,160 ","Hempstead","NY","11549","www.hofstra.edu","40.715959","-73.60078","0.6222",2,"21","1177",55322,"0","1","0","1","1","1","1","1","1","1","1","1","$42,160 ","49500"
"130",127,"University of Kentucky","$26,334 ","Lexington","KY","40506-0032","www.uky.edu","38.038911","-84.504747","0.9079",1,"11","1159",26143,"1","1","1","1","1","1","1","1","1","1","1","1","$26,334 ","46400"
"131",128,"Kansas State University","$23,429 ","Manhattan","KS","66506","www.k-state.edu","39.188648","-96.581077","0.9407",1,"13","NULL",21989,"1","1","1","1","1","1","1","1","1","1","2","1","$23,429 ","43500"
"132",129,"Mercer University","$35,130 ","Macon","GA","31207","www.mercer.edu","32.831787","-83.648295","0.6935",2,"12","1211",48766,"0","1","0","1","1","1","1","1","2","1","1","1","$35,130 ","52200"
"133",130,"New Jersey Institute of Technology","$30,326 ","Newark","NJ","07102","www.njit.edu/","40.741997","-74.177113","0.593",1,"11","1204",29143,"0","1","1","1","0","1","1","1","0","0","1","1","$30,326 ","59200"
"134",131,"University of Arkansas","$23,168 ","Fayetteville","AR","72701","www.uark.edu","36.070009","-94.176981","0.632",1,"13","1170",21817,"1","1","1","1","1","1","1","1","1","1","2","1","$23,168 ","44500"
"135",132,"University of Mississippi","$22,012 ","University","MS","38677-1848","www.olemiss.edu","34.365529","-89.537434","0.783",1,"33","1155",23372,"0","0","0","1","2","1","1","1","1","1","1","1","$22,012 ","48000"
"136",133,"Rutgers University-Newark","$29,480 ","Newark","NJ","07102","www.newark.rutgers.edu/","40.739122","-74.175809","0.6531",1,"11","1005",23299,"0","1","0","1","0","1","1","1","2","2","2","1","$29,480 ","54700"
"137",134,"University of Cincinnati-Main Campus","$26,334 ","Cincinnati","OH","45221-0063","www.uc.edu","39.131159","-84.51428","0.7642",1,"11","1164",26683,"1","1","1","1","2","1","1","1","1","1","1","1","$26,334 ","42100"
"138",135,"George Mason University","$32,582 ","Fairfax","VA","22030-4444","https://www2.gmu.edu/","38.829976","-77.307428","0.8099",1,"21","1165",24347,"0","1","0","2","1","1","1","1","1","1","1","1","$32,582 ","55400"
"139",136,"Oregon State University","$28,846 ","Corvallis","OR","97331","oregonstate.edu","44.56395","-123.274723","0.7748",1,"13","1127",26189,"2","2","0","2","1","1","1","1","2","2","1","2","$28,846 ","47000"
"140",137,"Washington State University","$25,673 ","Pullman","WA","99164-5910","wsu.edu/","46.730448","-117.158168","0.7204",1,"32","1054",26441,"1","1","1","1","1","2","1","1","2","2","2","1","$25,673 ","48300"
"141",138,"Adelphi University","$34,034 ","Garden City","NY","11530-0701","www.adelphi.edu/","40.721439","-73.653321","0.7029",2,"21","1114",47647,"0","1","0","1","1","0","1","1","1","1","1","1","$34,034 ","53700"
"142",139,"San Diego State University","$18,244 ","San Diego","CA","92182","www.sdsu.edu","32.77525","-117.071228","0.3464",1,"11","1132",22056,"0","1","0","1","1","1","1","1","1","1","1","1","$18,244 ","46400"
"143",140,"Sofia University","$21,208 ","Palo Alto","CA","94303","www.sofia.edu","37.430325","-122.10866","NULL",3,"13","NULL",NA,"0","0","0","0","0","0","0","0","2","0","0","0","$21,208 ","NULL"
"144",141,"Saint John Fisher College","$31,880 ","Rochester","NY","14618-3597","https://www.sjfc.edu","43.116259","-77.513056","0.6454",2,"21","1078",43779,"0","0","0","1","1","0","1","1","1","1","1","1","$31,880 ","43900"
"145",142,"Illinois State University","$20,886 ","Normal","IL","61790-1000","illinoisstate.edu/","40.509403","-88.990058","0.8888",1,"22","1090",27421,"1","0","0","1","1","0","1","1","1","1","1","1","$20,886 ","43700"
"146",143,"Immaculata University","$35,210 ","Immaculata","PA","19345","www.immaculata.edu","40.027981","-75.570711","0.8189",2,"21","970",50339,"0","0","0","2","1","0","1","1","1","1","2","1","$35,210 ","49500"
"147",144,"University of La Verne","$39,900 ","La Verne","CA","91750-4401","www.laverne.edu/","34.10086","-117.772634","0.4806",2,"21","1040",50603,"0","1","0","1","1","0","1","1","1","1","2","1","$39,900 ","44900"
"148",145,"Northwestern Oklahoma State University","$20,978 ","Alva","OK","73717-2799","www.nwosu.edu","36.796658","-98.667673","0.4377",1,"33","970",14626,"1","0","0","1","1","0","1","1","1","1","2","1","$20,978 ","36600"
"149",146,"University of California-Berkeley","$39,944 ","Berkeley","CA","94720","www.berkeley.edu","37.871918","-122.260463","0.1693",1,"12","1422",34924,"0","1","1","1","0","1","1","1","1","1","1","1","$39,944 ","62500"
"150",147,"University of Illinois at Chicago","$26,526 ","Chicago","IL","60607","www.uic.edu","41.871837","-87.650503","0.7359",1,"11","1105",25131,"0","0","1","1","1","1","1","1","1","1","2","1","$26,526 ","51700"
"151",148,"University of Massachusetts-Lowell","$29,125 ","Lowell","MA","01854-5104","www.uml.edu","42.652864","-71.326809","0.6057",1,"21","1172",26318,"0","0","0","2","0","1","1","2","2","1","2","1","$29,125 ","48600"
"152",149,"Seattle Pacific University","$38,940 ","Seattle","WA","98119-1997","www.spu.edu","47.650214","-122.361667","0.8728",2,"11","1108",51149,"0","0","0","1","1","1","1","1","1","1","1","1","$38,940 ","44000"
"153",150,"University of Rhode Island","$28,852 ","Kingston","RI","02881","web.uri.edu/","41.484691","-71.527356","0.7276",1,"21","1081",27552,"1","1","1","1","1","1","1","1","1","1","1","1","$28,852 ","49100"
"154",151,"University of Alabama at Birmingham","$17,654 ","Birmingham","AL","35294-0110","www.uab.edu","33.505697","-86.799345","0.5814",1,"12","1125",22684,"0","0","0","1","1","1","1","1","1","1","2","1","$17,654 ","42000"
"155",152,"University of Maryland-Baltimore County","$24,492 ","Baltimore","MD","21250","umbc.edu","39.256686","-76.711607","0.5683",1,"21","1216",23818,"0","1","0","1","1","1","1","1","1","1","1","1","$24,492 ","49700"
"156",153,"University of North Florida","$17,325 ","Jacksonville","FL","32224-7699","www.unf.edu","30.27194","-81.509144","0.6453",1,"11","1110",20926,"0","0","0","1","1","1","1","1","1","1","1","1","$17,325 ","41500"
"157",154,"Biola University","$36,696 ","La Mirada","CA","90639-0001","https://www.biola.edu","33.906203","-118.014374","0.6485",2,"21","1093",48857,"0","1","0","1","1","1","1","1","1","1","1","1","$36,696 ","42700"
"158",155,"Virginia Commonwealth University","$31,608 ","Richmond","VA","23284-2512","www.vcu.edu/","37.547631","-77.453597","0.8115",1,"12","1094",29278,"0","1","0","1","1","1","1","1","1","1","1","1","$31,608 ","42300"
"159",156,"Maryville University of Saint Louis","$27,958 ","Saint Louis","MO","63141-7299","www.maryville.edu","38.644774","-90.505998","0.928",2,"21","1114",43804,"0","1","0","1","1","1","1","1","1","1","2","1","$27,958 ","45500"
"160",157,"Missouri University of Science and Technology","$26,152 ","Rolla","MO","65409","www.mst.edu/","37.953426","-91.775583","0.7933",1,"33","1265",21698,"0","0","0","1","0","1","1","1","1","1","1","1","$26,152 ","61400"
"161",158,"Saint Johns University","$39,460 ","Collegeville","MN","56321","www.csbsju.edu","45.580075","-94.393621","0.8778",2,"41","1134",52168,"0","1","0","1","1","0","1","1","1","1","1","1","$39,460 ","54800"
"162",159,"Union University","$30,420 ","Jackson","TN","38305-3697","www.uu.edu","35.676896","-88.858524","0.6257",2,"13","1200",47458,"0","0","0","1","1","1","1","1","1","1","2","1","$30,420 ","42900"
"163",160,"Edgewood College","$27,530 ","Madison","WI","53711-1997","www.edgewood.edu","43.057059","-89.422884","0.7587",2,"11","1069",39116,"0","1","0","1","1","0","1","1","1","1","1","1","$27,530 ","42600"
"164",161,"Florida Institute of Technology","$40,446 ","Melbourne","FL","32901-6975","www.fit.edu","28.065815","-80.622893","0.6133",2,"13","1179",55984,"0","1","0","1","1","1","1","1","1","0","1","0","$40,446 ","50300"
"165",162,"University of Idaho","$22,040 ","Moscow","ID","83844-2282","www.uidaho.edu","46.727406","-117.014167","0.7589",1,"32","1070",20045,"1","1","1","1","1","1","1","1","1","1","1","2","$22,040 ","39800"
"166",163,"University of Louisville","$24,626 ","Louisville","KY","40292-0001","www.louisville.edu","38.216862","-85.760412","0.7257",1,"11","1165",24768,"0","0","0","0","1","1","1","1","1","1","1","1","$24,626 ","41100"
"167",164,"University of Wyoming","$16,215 ","Laramie","WY","82071","www.uwyo.edu","41.311773","-105.57931","0.9508",1,"33","1102",19169,"1","1","0","1","1","1","1","1","1","1","1","1","$16,215 ","47000"
"168",165,"Ball State University","$25,428 ","Muncie","IN","47306","www.bsu.edu","40.203431","-85.409043","0.6225",1,"13","1057",23157,"0","1","1","1","1","1","1","1","1","1","2","1","$25,428 ","37700"
"169",166,"Lipscomb University","$29,756 ","Nashville","TN","37204-3951","www.lipscomb.edu","36.10469","-86.799304","0.6085",2,"11","1142",42170,"0","1","0","1","1","1","1","1","1","1","2","1","$29,756 ","41200"
"170",167,"Mississippi State University","$20,142 ","Mississippi State","MS","39762","www.msstate.edu","33.454852","-88.790139","0.5567",1,"33","1125",22818,"1","1","1","1","1","1","1","1","1","1","1","1","$20,142 ","40600"
"171",168,"Montclair State University","$20,318 ","Montclair","NJ","07043-1624","www.montclair.edu","40.860414","-74.198141","0.6613",1,"21","NULL",24885,"0","0","0","1","1","0","1","1","1","1","1","1","$20,318 ","44600"
"172",169,"Texas Tech University","$22,861 ","Lubbock","TX","79409-5005","www.ttu.edu","33.583448","-101.874783","0.626",1,"11","1117",22112,"2","1","1","1","0","1","1","1","1","1","1","1","$22,861 ","50600"
"173",170,"University of Central Florida","$22,467 ","Orlando","FL","32816","www.ucf.edu/","28.602159","-81.200889","0.4999",1,"21","1179",21168,"0","0","1","1","2","1","1","1","2","2","1","2","$22,467 ","42800"
"174",171,"University of New Mexico-Gallup Campus","$21,302 ","Gallup","NM","87301","www.gallup.unm.edu","35.502662","-108.727252","NULL",1,"41","NULL",12891,"0","0","0","0","0","0","0","0","0","0","0","0","$21,302 ","37200"
"175",172,"Andrews University","$27,684 ","Berrien Springs","MI","49104","www.andrews.edu","41.963859","-86.355815","0.4042",2,"31","1127",36529,"1","0","1","1","1","1","1","1","1","1","1","1","$27,684 ","37200"
"176",173,"Azusa Pacific University","$36,120 ","Azusa","CA","91702-7000","www.apu.edu","34.130047","-117.888375","0.6146",2,"21","1035",48284,"0","0","0","2","1","0","1","1","1","1","2","1","$36,120 ","47600"
"177",174,"University of Maine","$29,498 ","Orono","ME","04469","www.umaine.edu/","44.899257","-68.669332","0.8975",1,"23","1073",22904,"1","1","0","1","1","1","1","1","1","2","1","1","$29,498 ","41000"
"178",175,"West Virginia University","$21,432 ","Morgantown","WV","26506","www.wvu.edu","39.634371","-79.954391","0.7612",1,"13","1069",19512,"1","1","1","1","1","1","1","1","1","1","1","1","$21,432 ","44000"
"179",177,"Robert Morris University","$28,250 ","Moon Township","PA","15108-1189","www.rmu.edu","40.520415","-80.210468","0.7984",2,"21","1050",42015,"0","1","0","1","2","1","1","1","2","2","2","1","$28,250 ","44000"
"180",178,"Suffolk University","$35,578 ","Boston","MA","02108-2770","www.suffolk.edu","42.358944","-71.061788","0.8442",2,"11","1020",48936,"0","1","0","1","1","1","1","1","1","1","1","1","$35,578 ","47900"
"181",179,"University of Hartford","$37,790 ","West Hartford","CT","06117-1599","www.hartford.edu","41.798591","-72.715213","0.7193",2,"12","1046",51495,"0","0","0","1","1","1","1","1","1","1","1","1","$37,790 ","42000"
"182",180,"Athens State University","$18,376 ","Athens","AL","35611","www.athens.edu","34.806793","-86.964698","NULL",1,"31","NULL",NA,"0","0","0","2","2","0","1","1","1","1","2","1","$18,376 ","37700"
"183",181,"North Dakota State University-Main Campus","$19,790 ","Fargo","ND","58108-6050","https://www.ndsu.edu","46.893127","-96.800838","0.928",1,"12","1091",19602,"1","1","1","1","1","1","1","1","1","2","1","1","$19,790 ","47500"
"184",182,"Alabama State University","$42,772 ","Montgomery","AL","36104-0271","www.alasu.edu","32.364317","-86.295677","0.459",1,"12","825",19242,"0","0","0","1","1","1","1","1","2","1","1","1","$42,772 ","25700"
"185",183,"University of Houston","$25,410 ","Houston","TX","77204-2018","www.uh.edu/","29.720393","-95.343537","0.5854",1,"11","1152",23858,"0","1","1","1","0","1","1","1","1","1","1","1","$25,410 ","51200"
"186",184,"Western Michigan University","$25,713 ","Kalamazoo","MI","49008-5200","https://wmich.edu/","42.282194","-85.613759","0.8231",1,"13","1030",23598,"0","1","1","1","1","1","1","1","1","1","1","1","$25,713 ","41600"
"187",185,"Bowling Green State University-Firelands","$18,332 ","Huron","OH","44839-9791","www.firelands.bgsu.edu","41.397521","-82.594156","NULL",1,"41","NULL",14572,"0","0","0","0","0","0","0","0","0","0","0","0","$18,332 ","37500"
"188",186,"Lesley University","$25,750 ","Cambridge","MA","02138-2790","www.lesley.edu","42.38012","-71.117303","0.6373",2,"12","1064",40889,"0","1","0","0","2","0","1","1","2","2","2","1","$25,750 ","34800"
"189",187,"Indiana University-Purdue University-Indianapolis","$29,791 ","Indianapolis","IN","46202-5143","www.iupui.edu","39.772948","-86.172217","0.7397",1,"11","1025",20451,"0","1","0","1","1","1","1","1","1","1","2","1","$29,791 ","43000"
"190",188,"University of Alabama in Huntsville","$20,622 ","Huntsville","AL","35899","www.uah.edu","34.724557","-86.640449","0.7628",1,"12","1257",22059,"0","0","0","1","1","1","1","1","1","1","1","1","$20,622 ","44900"
"191",189,"University of Colorado Denver/Anschutz Medical Campus","$29,334 ","Denver","CO","80217-3364","www.ucdenver.edu/","39.745149","-104.837722","0.6052",1,"11","1077",20306,"0","0","1","1","2","1","1","1","2","2","2","1","$29,334 ","59900"
"192",190,"University of Nevada-Reno","$21,052 ","Reno","NV","89557","www.unr.edu/","39.543642","-119.815377","0.8281",1,"12","1088",20702,"1","1","0","1","1","1","1","1","1","1","1","1","$21,052 ","47300"
"193",191,"Central Michigan University","$23,670 ","Mount Pleasant","MI","48859","https://www.cmich.edu","43.591203","-84.77525","0.7156",1,"32","1049",22778,"0","1","0","1","1","1","1","1","2","2","2","1","$23,670 ","38800"
"194",192,"Louisiana Tech University","$25,851 ","Ruston","LA","71272","www.latech.edu","32.528297","-92.649963","0.6319",1,"32","1105",18954,"1","1","1","1","1","1","1","1","1","1","2","1","$25,851 ","42900"
"195",193,"South Dakota State University","$11,403 ","Brookings","SD","57007-1898","https://www.sdstate.edu/","44.317485","-96.782139","0.9076",1,"33","1069",25761,"1","1","1","1","2","1","1","1","1","2","1","1","$11,403 ","43600"
"196",194,"University of North Dakota","$18,899 ","Grand Forks","ND","58202-8193","und.edu","47.921654","-97.071738","0.8369",1,"13","1090",19290,"0","0","0","1","2","1","1","1","2","1","1","1","$18,899 ","48400"
"197",195,"University of South Dakota","$11,688 ","Vermillion","SD","57069-2390","WWW.USD.EDU","42.786019","-96.925283","0.8813",1,"32","1050",20806,"0","0","0","1","1","0","1","1","1","1","1","1","$11,688 ","41300"
"198",196,"California State University-Fullerton","$17,596 ","Fullerton","CA","92831-3599","www.fullerton.edu","33.881506","-117.885446","0.4823",1,"21","1017",17049,"0","0","0","1","1","1","1","1","1","2","2","1","$17,596 ","43400"
"199",197,"University of Alaska Fairbanks","$22,469 ","Fairbanks","AK","99775-7500","www.uaf.edu","64.85756","-147.823146","0.7347",1,"23","1060",16694,"0","1","0","1","2","1","1","1","1","1","2","1","$22,469 ","40200"
"200",198,"University of North Carolina at Charlotte","$20,193 ","Charlotte","NC","28223-0001","www.uncc.edu","35.306022","-80.730919","0.6203",1,"11","1112",19723,"0","0","1","1","1","1","1","1","1","1","1","1","$20,193 ","42300"
"201",199,"East Carolina University","$22,904 ","Greenville","NC","27858-4353","www.ecu.edu","35.607186","-77.368291","0.7034",1,"13","1040",20567,"0","0","1","2","2","1","1","1","1","1","2","1","$22,904 ","38700"
"202",200,"Montana State University","$23,042 ","Bozeman","MT","59717","www.montana.edu/","45.666726","-111.048812","0.8287",1,"33","1126",19441,"1","2","1","1","2","1","1","2","1","1","1","1","$23,042 ","41500"
"203",201,"Old Dominion University","$27,028 ","Norfolk","VA","23529","www.odu.edu","36.886418","-76.30666","0.8464",1,"12","1010",22806,"0","0","0","2","2","2","1","1","2","2","2","1","$27,028 ","42000"
"204",202,"University of Missouri-Kansas City","$22,714 ","Kansas City","MO","64110","www.umkc.edu/","39.034179","-94.582141","0.6187",1,"11","1126",21575,"0","1","1","1","1","1","1","1","1","1","1","1","$22,714 ","47500"
"205",203,"Ashland University","$20,392 ","Ashland","OH","44805","https://www.ashland.edu","40.861755","-82.321061","0.7247",2,"31","1051",32390,"0","1","0","1","1","0","1","1","1","1","2","1","$20,392 ","37400"
"206",204,"Dallas Baptist University","$26,180 ","Dallas","TX","75211-9299","https://www.dbu.edu","32.710017","-96.947006","0.4311",2,"11","1060",36371,"0","1","0","1","1","0","1","1","2","2","2","2","$26,180 ","43700"
"207",205,"Northern Illinois University","$23,799 ","Dekalb","IL","60115-2828","www.niu.edu","41.933869","-88.766428","0.5184",1,"23","1030",28725,"0","1","0","1","1","1","1","1","1","1","1","1","$23,799 ","42400"
"208",206,"Nova Southeastern University","$27,660 ","Fort Lauderdale","FL","33314-7796","www.nova.edu","26.079337","-80.24248","0.5254",2,"21","1127",43351,"0","1","0","1","2","1","1","0","1","1","2","1","$27,660 ","49800"
"209",207,"Southern Illinois University-Carbondale","$27,130 ","Carbondale","IL","62901-4512","www.siu.edu","37.714193","-89.217273","0.7665",1,"13","1029",26868,"1","1","1","2","1","1","1","1","1","1","2","1","$27,130 ","42100"
"210",208,"University of Montevallo","$24,562 ","Montevallo","AL","35115-6000","www.montevallo.edu","33.10625","-86.865099","0.6542",1,"21","1069",24599,"0","0","0","0","1","0","1","1","1","1","1","1","$24,562 ","30800"
"211",209,"Benedictine University","$32,170 ","Lisle","IL","60532-0900","www.ben.edu","41.777569","-88.097307","NULL",2,"21","NULL",38036,"0","1","0","1","1","1","1","1","1","1","2","1","$32,170 ","45600"
"212",210,"Gardner-Webb University","$29,850 ","Boiling Springs","NC","28017-0997","www.gardner-webb.edu","35.24732","-81.668141","0.5188",2,"32","987",41020,"0","0","0","2","2","0","1","1","1","2","2","1","$29,850 ","36100"
"213",211,"Shenandoah University","$31,322 ","Winchester","VA","22601-5195","www.su.edu","39.166058","-78.158376","0.8802",2,"13","1009",44258,"0","1","0","0","1","0","1","1","1","1","1","1","$31,322 ","45800"
"214",212,"Tennessee Technological University","$24,800 ","Cookeville","TN","38505-0001","www.tntech.edu","36.174659","-85.503957","0.6721",1,"33","1103",23109,"1","1","0","1","2","1","1","1","1","1","1","1","$24,800 ","39700"
"215",213,"University of Southern Mississippi","$16,094 ","Hattiesburg","MS","39406-0001","www.usm.edu","31.32661","-89.331236","0.6014",1,"13","1070",20469,"0","0","1","1","2","1","1","1","1","1","2","1","$16,094 ","36700"
"216",214,"Utah State University","$19,772 ","Logan","UT","84322-1400","www.usu.edu","41.740748","-111.81391","0.9025",1,"13","1087",18093,"2","1","1","1","1","1","1","1","2","2","1","1","$19,772 ","41200"
"217",215,"California State University-Fresno","$17,209 ","Fresno","CA","93740","www.csufresno.edu","36.814477","-119.748258","0.5354",1,"11","907",16078,"1","1","0","1","1","1","1","1","1","1","1","1","$17,209 ","39800"
"218",216,"New Mexico State University-Dona Ana","$21,234 ","Las Cruces","NM","88011","dacc.nmsu.edu/","32.354486","-106.737172","NULL",1,"41","NULL",10972,"0","0","0","0","0","0","0","0","0","0","0","0","$21,234 ","34000"
"219",217,"University of Massachusetts-Boston","$32,023 ","Boston","MA","02125-3393","www.umb.edu","42.312881","-71.036865","0.6852",1,"11","1073",21884,"0","1","0","1","1","1","1","1","1","1","1","1","$32,023 ","45000"
"220",218,"University of Massachusetts-Dartmouth","$19,270 ","North Dartmouth","MA","02747-2300","www.umassd.edu","41.62869","-71.004552","0.7602",1,"22","1025",25410,"0","0","0","1","1","1","1","1","1","2","2","1","$19,270 ","42600"
"221",219,"University of Missouri-St Louis","$26,277 ","Saint Louis","MO","63121-4400","www.umsl.edu/","38.710312","-90.311091","0.7062",1,"21","1101",22105,"0","0","0","1","1","1","1","1","1","2","2","2","$26,277 ","41100"
"222",220,"University of North Carolina at Greensboro","$21,595 ","Greensboro","NC","27402-6170","www.uncg.edu","36.068236","-79.809414","0.7393",1,"11","1054",18764,"0","0","0","2","2","0","1","1","1","1","2","1","$21,595 ","35200"
